STARLINK-1494           
1 45760U 20038AG  26068.49716211  .00096828  00000+0  67102-3 0  9999
2 45760  53.0480 152.5788 0005412   2.9213 357.1836 15.73709706317367
STARLINK-11570 [DTC]    
1 62992U 25031M   26068.14870474  .00158159  00000+0  12121-2 0  9993
2 62992  43.0002   5.0477 0001674 271.9961  88.0715 15.70851747 62647
